{
    "links": {
        "self": "http://www.neowsapp.com/rest/v1/neo/3683470?api_key=iIulBulltgU6a56xZRHN4H3l9WmuAYTsLGpBGhQ2"
    },
    "id": "3683470",
    "neo_reference_id": "3683470",
    "name": "(2014 QT295)",
    "designation": "2014 QT295",
    "nasa_jpl_url": "http://ssd.jpl.nasa.gov/sbdb.cgi?sstr=3683470",
    "absolute_magnitude_h": 25.9,
    "estimated_diameter": {
        "kilometers": {
            "estimated_diameter_min": 0.0175612318,
            "estimated_diameter_max": 0.0392681082
        },
        "meters": {
            "estimated_diameter_min": 17.561231848,
            "estimated_diameter_max": 39.2681081809
        },
        "miles": {
            "estimated_diameter_min": 0.0109120402,
            "estimated_diameter_max": 0.0244000636
        },
        "feet": {
            "estimated_diameter_min": 57.6155918963,
            "estimated_diameter_max": 128.8323800441
        }
    },
    "is_potentially_hazardous_asteroid": false,
    "close_approach_data": [
        {
            "close_approach_date": "2014-09-05",
            "close_approach_date_full": "2014-Sep-05 17:54",
            "epoch_date_close_approach": 1409939640000,
            "relative_velocity": {
                "kilometers_per_second": "12.2548907646",
                "kilometers_per_hour": "44117.606752452",
                "miles_per_hour": "27412.9651512666"
            },
            "miss_distance": {
                "astronomical": "0.0171321143",
                "lunar": "6.6643924627",
                "kilometers": "2562927.807876541",
                "miles": "1592529.4932406258"
            },
            "orbiting_body": "Earth"
        },
        {
            "close_approach_date": "2059-12-10",
            "close_approach_date_full": "2059-Dec-10 07:11",
            "epoch_date_close_approach": 2838265860000,
            "relative_velocity": {
                "kilometers_per_second": "13.0348456487",
                "kilometers_per_hour": "46925.4443353243",
                "miles_per_hour": "29157.6462315797"
            },
            "miss_distance": {
                "astronomical": "0.0705012812",
                "lunar": "27.4249983868",
                "kilometers": "10546841.499791044",
                "miles": "6553503.4179786472"
            },
            "orbiting_body": "Mars"
        }
    ],
    "orbital_data": {
        "orbit_id": "8",
        "orbit_determination_date": "2017-08-10 06:18:12",
        "first_observation_date": "2014-08-22",
        "last_observation_date": "2014-09-06",
        "data_arc_in_days": 15,
        "observations_used": 22,
        "orbit_uncertainty": "8",
        "minimum_orbit_intersection": ".0114329",
        "jupiter_tisserand_invariant": "3.900",
        "epoch_osculation": "2456893.5",
        "eccentricity": ".5270196789885694",
        "semi_major_axis": "1.792685007768827",
        "inclination": ".8328157153893652",
        "ascending_node_longitude": "221.4377883339562",
        "orbital_period": "876.7068636332516",
        "perihelion_distance": ".847904730446879",
        "perihelion_argument": "180.0109262805533",
        "aphelion_distance": "2.737465285090776",
        "perihelion_time": "2456948.246809857758",
        "mean_anomaly": "337.5194510658724",
        "mean_motion": ".4106275597160113",
        "equinox": "J2000",
        "orbit_class": {
            "orbit_class_type": "APO",
            "orbit_class_description": "Near-Earth asteroid orbits which cross the Earth’s orbit similar to that of 1862 Apollo",
            "orbit_class_range": "a (semi-major axis) > 1.0 AU; q (perihelion) < 1.017 AU"
        }
    },
    "is_sentry_object": false
}